{"fetched_at":"2026-03-30T13:17:50Z","count":15418,"tles":[{"name":"STARLINK-32764","line1":"1 62570U 25006S   26087.68654593  .00025607  00000+0  93600-3 0  9992","line2":"2 62570  43.0009 185.6623 0000442 241.7587 118.3220 15.27609493 67762","category":"Starlink"}]}